ONEWEB-0300             
1 49089U 21075Q   25365.45880235 -.00000241  00000+0 -70493-3 0  9995
2 49089  87.8926  23.9633 0002003  89.0147 271.1211 13.12443071213201
ONEWEB-0301             
1 49090U 21075R   25365.44271060  .00000285  00000+0  75596-3 0  9991
2 49090  87.8923  23.9682 0002051  86.8603 273.2760 13.12442813212562
ONEWEB-0302             
1 49091U 21075S   25365.50538043  .00000575  00000+0  15639-2 0  9999
2 49091  87.8925  23.9637 0001418  97.9586 262.1703 13.12443671212550
ONEWEB-0304             
1 49092U 21075T   25365.50127051  .00000013  00000+0  32366-6 0  9990
2 49092  87.9099  39.2020 0001811 100.5836 259.5500 13.17647675211498
ONEWEB-0305             
1 49093U 21075U   25365.49454150 -.00000025  00000+0 -97444-4 0  9993
2 49093  87.9102  39.1812 0001899 108.9022 251.2316 13.17648708211523
ONEWEB-0308             
1 49094U 21075V   25365.49859541  .00000272  00000+0  72070-3 0  9996
2 49094  87.8927  23.9582 0001736  91.7326 268.4001 13.12443993212569
ONEWEB-0309             
1 49095U 21075W   25365.49791492  .00000043  00000+0  77871-4 0  9998
2 49095  87.9101  39.1963 0001350 100.3407 259.7877 13.17649587211493
ONEWEB-0310             
1 49096U 21075X   25365.43762773  .00000447  00000+0  12075-2 0  9994
2 49096  87.8919  24.0057 0001691  91.2177 268.9145 13.12443870213187
